TEVEL2-3                
1 63218U 25052J   26062.17155620  .00021373  00000+0  73592-3 0  9991
2 63218  97.4017 318.3270 0004368 119.1899 240.9779 15.30053897 53864
TEVEL2-2                
1 63219U 25052K   26061.45508269  .00022969  00000+0  79209-3 0  9996
2 63219  97.4017 317.6037 0004235 120.2136 239.9524 15.29988876 53754
TEVEL2-9                
1 63237U 25052AD  26061.69733037  .00019983  00000+0  72566-3 0  9996
2 63237  97.4078 317.4266 0007313 144.2958 215.8772 15.28311423 53745
TEVEL2-7                
1 63238U 25052AE  26061.26227880  .00020443  00000+0  74741-3 0  9994
2 63238  97.4081 316.9483 0007453 146.3242 213.8472 15.28082137 53673
TEVEL2-8                
1 63239U 25052AF  26061.92403361  .00020228  00000+0  73951-3 0  9991
2 63239  97.4075 317.5873 0007397 144.4417 215.7316 15.28085966 53779
HADES-ICM               
1 63492U 25052BN  26061.94421618  .00140395  00000+0  20827-2 0  9990
2 63492  97.3974 322.1564 0008280 123.9420 236.2622 15.54696929 54094
INNOSAT 16 (RS92S7)     
1 64878U 25155C   26062.15124262  .00008186  00000+0  33985-3 0  9993
2 64878  97.4451  29.7940 0010152 188.2111 171.8962 15.24053286 64513
GEOSCAN 6 (RS92S6)      
1 64879U 25155D   26062.16583864  .00014262  00000+0  52774-3 0  9991
2 64879  97.4450  30.5550 0007796 175.7573 184.3734 15.27763366 64564
GEOSCAN 1 (RS92S1)      
1 64880U 25155E   26062.13792674  .00015614  00000+0  57034-3 0  9997
2 64880  97.4447  30.5971 0007687 176.0486 184.0815 15.28170050 64565
239ALFEROV (RS61S)      
1 64881U 25155F   26062.17001133  .00019754  00000+0  68905-3 0  9993
2 64881  97.4453  30.8874 0007391 172.9535 187.1811 15.29631938 64580
GEOSCAN 2 (RS92S2)      
1 64890U 25155Q   26062.15157072  .00015050  00000+0  54482-3 0  9995
2 64890  97.4446  30.7184 0007619 161.5709 198.5808 15.28473400 64573
GEOSCAN 5 (RS92S5)      
1 64891U 25155R   26062.18159050  .00019884  00000+0  68669-3 0  9998
2 64891  97.4446  30.9946 0005977 175.8481 184.2810 15.29965527 64596
GEOSCAN 4 (RS92S4)      
1 64892U 25155S   26062.17441081  .00019636  00000+0  67603-3 0  9998
2 64892  97.4449  31.0105 0005965 176.1270 184.0018 15.30067964 64594
GEOSCAN 3 (RS92S3)      
1 64893U 25155T   26062.15785982  .00023363  00000+0  77277-3 0  9998
2 64893  97.4442  31.1726 0005631 175.4872 184.6421 15.31331683 64607
INNOSAT 3 (RS92S0)      
1 64894U 25155U   26062.14638695  .00042619  00000+0  12093-2 0  9995
2 64894  97.4412  31.7643 0005149 164.6585 195.4815 15.36081497 64645
