[{"OBJECT_NAME":"TEVEL2-3","OBJECT_ID":"2025-052J","EPOCH":"2026-03-03T04:07:02.455680","MEAN_MOTION":15.30053897,"ECCENTRICITY":0.0004368,"INCLINATION":97.4017,"RA_OF_ASC_NODE":318.327,"ARG_OF_PERICENTER":119.1899,"MEAN_ANOMALY":240.9779,"EPHEMERIS_TYPE":0,"CLASSIFICATION_TYPE":"U","NORAD_CAT_ID":63218,"ELEMENT_SET_NO":999,"REV_AT_EPOCH":5386,"BSTAR":0.00073592,"MEAN_MOTION_DOT":0.00021373,"MEAN_MOTION_DDOT":0},{"OBJECT_NAME":"TEVEL2-2","OBJECT_ID":"2025-052K","EPOCH":"2026-03-02T10:55:19.144416","MEAN_MOTION":15.29988876,"ECCENTRICITY":0.00042359,"INCLINATION":97.4017,"RA_OF_ASC_NODE":317.6037,"ARG_OF_PERICENTER":120.2136,"MEAN_ANOMALY":239.9524,"EPHEMERIS_TYPE":0,"CLASSIFICATION_TYPE":"U","NORAD_CAT_ID":63219,"ELEMENT_SET_NO":999,"REV_AT_EPOCH":5375,"BSTAR":0.00079209034,"MEAN_MOTION_DOT":0.00022969,"MEAN_MOTION_DDOT":0},{"OBJECT_NAME":"TEVEL2-9","OBJECT_ID":"2025-052AD","EPOCH":"2026-03-02T16:44:09.343968","MEAN_MOTION":15.28311423,"ECCENTRICITY":0.00073132,"INCLINATION":97.4078,"RA_OF_ASC_NODE":317.4266,"ARG_OF_PERICENTER":144.2958,"MEAN_ANOMALY":215.8772,"EPHEMERIS_TYPE":0,"CLASSIFICATION_TYPE":"U","NORAD_CAT_ID":63237,"ELEMENT_SET_NO":999,"REV_AT_EPOCH":5374,"BSTAR":0.00072565855,"MEAN_MOTION_DOT":0.00019983,"MEAN_MOTION_DDOT":0},{"OBJECT_NAME":"TEVEL2-7","OBJECT_ID":"2025-052AE","EPOCH":"2026-03-02T06:17:40.888320","MEAN_MOTION":15.28082137,"ECCENTRICITY":0.00074531,"INCLINATION":97.4081,"RA_OF_ASC_NODE":316.9483,"ARG_OF_PERICENTER":146.3242,"MEAN_ANOMALY":213.8472,"EPHEMERIS_TYPE":0,"CLASSIFICATION_TYPE":"U","NORAD_CAT_ID":63238,"ELEMENT_SET_NO":999,"REV_AT_EPOCH":5367,"BSTAR":0.00074740617,"MEAN_MOTION_DOT":0.00020443,"MEAN_MOTION_DDOT":0},{"OBJECT_NAME":"TEVEL2-8","OBJECT_ID":"2025-052AF","EPOCH":"2026-03-02T22:10:36.503904","MEAN_MOTION":15.28085966,"ECCENTRICITY":0.0007397,"INCLINATION":97.4075,"RA_OF_ASC_NODE":317.5873,"ARG_OF_PERICENTER":144.4417,"MEAN_ANOMALY":215.7316,"EPHEMERIS_TYPE":0,"CLASSIFICATION_TYPE":"U","NORAD_CAT_ID":63239,"ELEMENT_SET_NO":999,"REV_AT_EPOCH":5377,"BSTAR":0.00073951,"MEAN_MOTION_DOT":0.00020228,"MEAN_MOTION_DDOT":0},{"OBJECT_NAME":"HADES-ICM","OBJECT_ID":"2025-052BN","EPOCH":"2026-03-02T22:39:40.277952","MEAN_MOTION":15.54696929,"ECCENTRICITY":0.000828,"INCLINATION":97.3974,"RA_OF_ASC_NODE":322.1564,"ARG_OF_PERICENTER":123.942,"MEAN_ANOMALY":236.2622,"EPHEMERIS_TYPE":0,"CLASSIFICATION_TYPE":"U","NORAD_CAT_ID":63492,"ELEMENT_SET_NO":999,"REV_AT_EPOCH":5409,"BSTAR":0.0020827,"MEAN_MOTION_DOT":0.00140395,"MEAN_MOTION_DDOT":0},{"OBJECT_NAME":"INNOSAT 16 (RS92S7)","OBJECT_ID":"2025-155C","EPOCH":"2026-03-03T03:37:47.362368","MEAN_MOTION":15.24053286,"ECCENTRICITY":0.0010152,"INCLINATION":97.4451,"RA_OF_ASC_NODE":29.794,"ARG_OF_PERICENTER":188.2111,"MEAN_ANOMALY":171.8962,"EPHEMERIS_TYPE":0,"CLASSIFICATION_TYPE":"U","NORAD_CAT_ID":64878,"ELEMENT_SET_NO":999,"REV_AT_EPOCH":6451,"BSTAR":0.00033985,"MEAN_MOTION_DOT":8.186e-5,"MEAN_MOTION_DDOT":0},{"OBJECT_NAME":"GEOSCAN 6 (RS92S6)","OBJECT_ID":"2025-155D","EPOCH":"2026-03-03T03:58:48.458496","MEAN_MOTION":15.27763366,"ECCENTRICITY":0.0007796,"INCLINATION":97.445,"RA_OF_ASC_NODE":30.555,"ARG_OF_PERICENTER":175.7573,"MEAN_ANOMALY":184.3734,"EPHEMERIS_TYPE":0,"CLASSIFICATION_TYPE":"U","NORAD_CAT_ID":64879,"ELEMENT_SET_NO":999,"REV_AT_EPOCH":6456,"BSTAR":0.00052774,"MEAN_MOTION_DOT":0.00014262,"MEAN_MOTION_DDOT":0},{"OBJECT_NAME":"GEOSCAN 1 (RS92S1)","OBJECT_ID":"2025-155E","EPOCH":"2026-03-03T03:18:36.870336","MEAN_MOTION":15.2817005,"ECCENTRICITY":0.0007687,"INCLINATION":97.4447,"RA_OF_ASC_NODE":30.5971,"ARG_OF_PERICENTER":176.0486,"MEAN_ANOMALY":184.0815,"EPHEMERIS_TYPE":0,"CLASSIFICATION_TYPE":"U","NORAD_CAT_ID":64880,"ELEMENT_SET_NO":999,"REV_AT_EPOCH":6456,"BSTAR":0.00057034,"MEAN_MOTION_DOT":0.00015614,"MEAN_MOTION_DDOT":0},{"OBJECT_NAME":"239ALFEROV (RS61S)","OBJECT_ID":"2025-155F","EPOCH":"2026-03-03T04:04:48.978912","MEAN_MOTION":15.29631938,"ECCENTRICITY":0.0007391,"INCLINATION":97.4453,"RA_OF_ASC_NODE":30.8874,"ARG_OF_PERICENTER":172.9535,"MEAN_ANOMALY":187.1811,"EPHEMERIS_TYPE":0,"CLASSIFICATION_TYPE":"U","NORAD_CAT_ID":64881,"ELEMENT_SET_NO":999,"REV_AT_EPOCH":6458,"BSTAR":0.00068905,"MEAN_MOTION_DOT":0.00019754,"MEAN_MOTION_DDOT":0},{"OBJECT_NAME":"GEOSCAN 2 (RS92S2)","OBJECT_ID":"2025-155Q","EPOCH":"2026-03-03T03:38:15.710208","MEAN_MOTION":15.284734,"ECCENTRICITY":0.0007619,"INCLINATION":97.4446,"RA_OF_ASC_NODE":30.7184,"ARG_OF_PERICENTER":161.5709,"MEAN_ANOMALY":198.5808,"EPHEMERIS_TYPE":0,"CLASSIFICATION_TYPE":"U","NORAD_CAT_ID":64890,"ELEMENT_SET_NO":999,"REV_AT_EPOCH":6457,"BSTAR":0.00054482,"MEAN_MOTION_DOT":0.0001505,"MEAN_MOTION_DDOT":0},{"OBJECT_NAME":"GEOSCAN 5 (RS92S5)","OBJECT_ID":"2025-155R","EPOCH":"2026-03-03T04:21:29.419200","MEAN_MOTION":15.29965527,"ECCENTRICITY":0.0005977,"INCLINATION":97.4446,"RA_OF_ASC_NODE":30.9946,"ARG_OF_PERICENTER":175.8481,"MEAN_ANOMALY":184.281,"EPHEMERIS_TYPE":0,"CLASSIFICATION_TYPE":"U","NORAD_CAT_ID":64891,"ELEMENT_SET_NO":999,"REV_AT_EPOCH":6459,"BSTAR":0.00068669,"MEAN_MOTION_DOT":0.00019884,"MEAN_MOTION_DDOT":0},{"OBJECT_NAME":"GEOSCAN 4 (RS92S4)","OBJECT_ID":"2025-155S","EPOCH":"2026-03-03T04:11:09.093984","MEAN_MOTION":15.30067964,"ECCENTRICITY":0.0005965,"INCLINATION":97.4449,"RA_OF_ASC_NODE":31.0105,"ARG_OF_PERICENTER":176.127,"MEAN_ANOMALY":184.0018,"EPHEMERIS_TYPE":0,"CLASSIFICATION_TYPE":"U","NORAD_CAT_ID":64892,"ELEMENT_SET_NO":999,"REV_AT_EPOCH":6459,"BSTAR":0.00067603,"MEAN_MOTION_DOT":0.00019636,"MEAN_MOTION_DDOT":0},{"OBJECT_NAME":"GEOSCAN 3 (RS92S3)","OBJECT_ID":"2025-155T","EPOCH":"2026-03-03T03:47:19.088448","MEAN_MOTION":15.31331683,"ECCENTRICITY":0.0005631,"INCLINATION":97.4442,"RA_OF_ASC_NODE":31.1726,"ARG_OF_PERICENTER":175.4872,"MEAN_ANOMALY":184.6421,"EPHEMERIS_TYPE":0,"CLASSIFICATION_TYPE":"U","NORAD_CAT_ID":64893,"ELEMENT_SET_NO":999,"REV_AT_EPOCH":6460,"BSTAR":0.00077277,"MEAN_MOTION_DOT":0.00023363,"MEAN_MOTION_DDOT":0},{"OBJECT_NAME":"INNOSAT 3 (RS92S0)","OBJECT_ID":"2025-155U","EPOCH":"2026-03-03T03:30:47.832480","MEAN_MOTION":15.36081497,"ECCENTRICITY":0.0005149,"INCLINATION":97.4412,"RA_OF_ASC_NODE":31.7643,"ARG_OF_PERICENTER":164.6585,"MEAN_ANOMALY":195.4815,"EPHEMERIS_TYPE":0,"CLASSIFICATION_TYPE":"U","NORAD_CAT_ID":64894,"ELEMENT_SET_NO":999,"REV_AT_EPOCH":6464,"BSTAR":0.0012093,"MEAN_MOTION_DOT":0.00042619,"MEAN_MOTION_DDOT":0}]
